{"fetched_at":"2026-07-15T06:36:24.157Z","source":"https://celestrak.org/NORAD/elements/gp.php?NAME=SENTINEL&FORMAT=JSON","constellation":"sentinel-1","records":[{"OBJECT_NAME":"SENTINEL-1A","OBJECT_ID":"2014-016A","EPOCH":"2026-07-14T22:23:47.446656","CLASSIFICATION_TYPE":"U","MEAN_MOTION":14.59196101,"ECCENTRICITY":0.00014359,"INCLINATION":98.1768,"RA_OF_ASC_NODE":203.0608,"ARG_OF_PERICENTER":86.9078,"MEAN_ANOMALY":273.2286,"EPHEMERIS_TYPE":0,"NORAD_CAT_ID":39634,"ELEMENT_SET_NO":999,"REV_AT_EPOCH":65406,"BSTAR":0.000082784558,"MEAN_MOTION_DOT":0.00000345,"MEAN_MOTION_DDOT":0},{"OBJECT_NAME":"SENTINEL-1C","OBJECT_ID":"2024-235A","EPOCH":"2026-07-14T23:20:32.067168","CLASSIFICATION_TYPE":"U","MEAN_MOTION":14.59197747,"ECCENTRICITY":0.00013755,"INCLINATION":98.1824,"RA_OF_ASC_NODE":202.8861,"ARG_OF_PERICENTER":90.8376,"MEAN_ANOMALY":269.2982,"EPHEMERIS_TYPE":0,"NORAD_CAT_ID":62261,"ELEMENT_SET_NO":999,"REV_AT_EPOCH":8546,"BSTAR":0.000026145602,"MEAN_MOTION_DOT":7.7e-7,"MEAN_MOTION_DDOT":0},{"OBJECT_NAME":"SENTINEL-1D","OBJECT_ID":"2025-251A","EPOCH":"2026-07-14T22:31:22.951776","CLASSIFICATION_TYPE":"U","MEAN_MOTION":14.59197126,"ECCENTRICITY":0.00013249,"INCLINATION":98.1841,"RA_OF_ASC_NODE":202.9078,"ARG_OF_PERICENTER":88.6456,"MEAN_ANOMALY":271.4895,"EPHEMERIS_TYPE":0,"NORAD_CAT_ID":66315,"ELEMENT_SET_NO":999,"REV_AT_EPOCH":3677,"BSTAR":-0.000007403035,"MEAN_MOTION_DOT":-8.1e-7,"MEAN_MOTION_DDOT":0}]}
