SENTINEL-1A             
1 39634U 14016A   26195.93318804  .00000345  00000+0  82785-4 0  9991
2 39634  98.1768 203.0608 0001435  86.9078 273.2286 14.59196101654064
SENTINEL-1C             
1 62261U 24235A   26195.97259337  .00000077  00000+0  26146-4 0  9997
2 62261  98.1824 202.8861 0001375  90.8376 269.2982 14.59197747 85462
SENTINEL-1D             
1 66315U 25251A   26195.93846009 -.00000081  00000+0 -74030-5 0  9997
2 66315  98.1841 202.9078 0001324  88.6456 271.4895 14.59197126 36773
